start=new Date('2022-01-15T00:00:00.000Z').valueOf();
sats=[{"MEAN_MOTION_DOT":"0.00001980","ARG_OF_PERICENTER":"75.9956","CENTER_NAME":"EARTH","OBJECT_ID":"2021-017AS","LAUNCH_DATE":"2021-03-04","MEAN_ELEMENT_THEORY":"SGP4","DECAY_DATE":null,"SEMIMAJOR_AXIS":"6925.345","MEAN_MOTION_DDOT":"0.0000000000000","EPOCH":"2022-01-14T20:01:47.679168","CLASSIFICATION_TYPE":"U","REF_FRAME":"TEME","MEAN_MOTION":"15.06401316","COUNTRY_CODE":"US","BSTAR":"0.00015181000000","PERIAPSIS":"545.624","TLE_LINE2":"2 47762  53.0537 187.0785 0002289  75.9956 284.1287 15.06401316 49214","INCLINATION":"53.0537","RCS_SIZE":"LARGE","SITE":"AFETR","OBJECT_NAME":"STARLINK-2180","APOAPSIS":"548.795","OBJECT_TYPE":"PAYLOAD","TLE_LINE1":"1 47762U 21017AS  22014.83457962  .00001980  00000-0  15181-3 0  9997","GP_ID":"193878148","TIME_SYSTEM":"UTC","PERIOD":"95.592","ELEMENT_SET_NO":"999","ECCENTRICITY":"0.00022890","RA_OF_ASC_NODE":"187.0785","NORAD_CAT_ID":"47762","FILE":"3273247","MEAN_ANOMALY":"284.1287","REV_AT_EPOCH":"4921","EPHEMERIS_TYPE":"0"},{"EPHEMERIS_TYPE":"0","RA_OF_ASC_NODE":"177.5741","NORAD_CAT_ID":"47763","FILE":"3273247","REV_AT_EPOCH":"4931","MEAN_ANOMALY":"285.2626","ECCENTRICITY":"0.00021840","ELEMENT_SET_NO":"999","PERIOD":"95.592","TLE_LINE1":"1 47763U 21017AT  22014.71848193  .00001096  00000-0  92511-4 0  9996","GP_ID":"193878398","TIME_SYSTEM":"UTC","APOAPSIS":"548.721","OBJECT_TYPE":"PAYLOAD","OBJECT_NAME":"STARLINK-2181","INCLINATION":"53.0612","RCS_SIZE":"LARGE","SITE":"AFETR","PERIAPSIS":"545.696","TLE_LINE2":"2 47763  53.0612 177.5741 0002184  74.8605 285.2626 15.06401621 49317","BSTAR":"0.00009251100000","COUNTRY_CODE":"US","REF_FRAME":"TEME","MEAN_MOTION":"15.06401621","SEMIMAJOR_AXIS":"6925.344","MEAN_MOTION_DDOT":"0.0000000000000","CLASSIFICATION_TYPE":"U","EPOCH":"2022-01-14T17:14:36.838752","LAUNCH_DATE":"2021-03-04","DECAY_DATE":null,"MEAN_ELEMENT_THEORY":"SGP4","CENTER_NAME":"EARTH","ARG_OF_PERICENTER":"74.8605","MEAN_MOTION_DOT":"0.00001096","OBJECT_ID":"2021-017AT"},{"OBJECT_TYPE":"PAYLOAD","APOAPSIS":"548.766","OBJECT_NAME":"STARLINK-2182","PERIOD":"95.592","TLE_LINE1":"1 47764U 21017AU  22014.75442903  .00001544  00000-0  12252-3 0  9991","GP_ID":"193879649","TIME_SYSTEM":"UTC","ECCENTRICITY":"0.00022600","ELEMENT_SET_NO":"999","EPHEMERIS_TYPE":"0","RA_OF_ASC_NODE":"187.4307","NORAD_CAT_ID":"47764","MEAN_ANOMALY":"281.4294","FILE":"3273247","REV_AT_EPOCH":"4923","LAUNCH_DATE":"2021-03-04","DECAY_DATE":null,"MEAN_ELEMENT_THEORY":"SGP4","CENTER_NAME":"EARTH","ARG_OF_PERICENTER":"78.6949","MEAN_MOTION_DOT":"0.00001544","OBJECT_ID":"2021-017AU","SEMIMAJOR_AXIS":"6925.336","MEAN_MOTION_DDOT":"0.0000000000000","CLASSIFICATION_TYPE":"U","EPOCH":"2022-01-14T18:06:22.668192","COUNTRY_CODE":"US","BSTAR":"0.00012252000000","REF_FRAME":"TEME","MEAN_MOTION":"15.06404026","INCLINATION":"53.0537","RCS_SIZE":"LARGE","SITE":"AFETR","PERIAPSIS":"545.636","TLE_LINE2":"2 47764  53.0537 187.4307 0002260  78.6949 281.4294 15.06404026 49232"},{"SEMIMAJOR_AXIS":"6919.987","MEAN_MOTION_DDOT":"0.0000000000000","CLASSIFICATION_TYPE":"U","EPOCH":"2022-01-14T17:45:15.965568","CENTER_NAME":"EARTH","ARG_OF_PERICENTER":"104.6698","MEAN_MOTION_DOT":"0.00001485","OBJECT_ID":"2021-017AV","LAUNCH_DATE":"2021-03-04","DECAY_DATE":null,"MEAN_ELEMENT_THEORY":"SGP4","PERIAPSIS":"539.902","TLE_LINE2":"2 47765  53.0553 166.9690 0002818 104.6698 255.4604 15.08151118 49473","RCS_SIZE":"LARGE","INCLINATION":"53.0553","SITE":"AFETR","REF_FRAME":"TEME","MEAN_MOTION":"15.08151118","COUNTRY_CODE":"US","BSTAR":"0.00011339000000","TLE_LINE1":"1 47765U 21017AV  22014.73976812  .00001485  00000-0  11339-3 0  9990","GP_ID":"193879900","TIME_SYSTEM":"UTC","PERIOD":"95.481","OBJECT_NAME":"STARLINK-2183","OBJECT_TYPE":"PAYLOAD","APOAPSIS":"543.802","NORAD_CAT_ID":"47765","RA_OF_ASC_NODE":"166.9690","REV_AT_EPOCH":"4947","FILE":"3273247","MEAN_ANOMALY":"255.4604","EPHEMERIS_TYPE":"0","ELEMENT_SET_NO":"999","ECCENTRICITY":"0.00028180"},{"ECCENTRICITY":"0.00021410","ELEMENT_SET_NO":"999","EPHEMERIS_TYPE":"0","MEAN_ANOMALY":"283.2849","FILE":"3273247","REV_AT_EPOCH":"4917","NORAD_CAT_ID":"47766","RA_OF_ASC_NODE":"187.3514","APOAPSIS":"548.709","OBJECT_TYPE":"PAYLOAD","OBJECT_NAME":"STARLINK-2184","PERIOD":"95.592","TIME_SYSTEM":"UTC","TLE_LINE1":"1 47766U 21017AW  22014.77284806  .00000942  00000-0  82154-4 0  9991","GP_ID":"193878648","COUNTRY_CODE":"US","BSTAR":"0.00008215400000","MEAN_MOTION":"15.06395977","REF_FRAME":"TEME","SITE":"AFETR","INCLINATION":"53.0557","RCS_SIZE":"LARGE","TLE_LINE2":"2 47766  53.0557 187.3514 0002141  76.8378 283.2849 15.06395977 49172","PERIAPSIS":"545.743","DECAY_DATE":null,"MEAN_ELEMENT_THEORY":"SGP4","LAUNCH_DATE":"2021-03-04","OBJECT_ID":"2021-017AW","CENTER_NAME":"EARTH","ARG_OF_PERICENTER":"76.8378","MEAN_MOTION_DOT":"0.00000942","CLASSIFICATION_TYPE":"U","EPOCH":"2022-01-14T18:32:54.072384","MEAN_MOTION_DDOT":"0.0000000000000","SEMIMAJOR_AXIS":"6925.361"},{"MEAN_MOTION":"15.06401640","REF_FRAME":"TEME","COUNTRY_CODE":"US","BSTAR":"0.00000535980000","TLE_LINE2":"2 47767  53.0554 171.9387 0001789  82.1652 277.9541 15.06401640 49465","PERIAPSIS":"545.970","SITE":"AFETR","RCS_SIZE":"LARGE","INCLINATION":"53.0554","OBJECT_ID":"2021-017AX","ARG_OF_PERICENTER":"82.1652","MEAN_MOTION_DOT":"-0.00000202","CENTER_NAME":"EARTH","MEAN_ELEMENT_THEORY":"SGP4","DECAY_DATE":null,"LAUNCH_DATE":"2021-03-04","EPOCH":"2022-01-14T20:44:55.765248","CLASSIFICATION_TYPE":"U","SEMIMAJOR_AXIS":"6925.344","MEAN_MOTION_DDOT":"0.0000000000000","ELEMENT_SET_NO":"999","ECCENTRICITY":"0.00017890","MEAN_ANOMALY":"277.9541","FILE":"3273247","REV_AT_EPOCH":"4946","RA_OF_ASC_NODE":"171.9387","NORAD_CAT_ID":"47767","EPHEMERIS_TYPE":"0","OBJECT_NAME":"STARLINK-2185","OBJECT_TYPE":"PAYLOAD","APOAPSIS":"548.447","TIME_SYSTEM":"UTC","TLE_LINE1":"1 47767U 21017AX  22014.86453432 -.00000202  00000-0  53598-5 0  9996","GP_ID":"193878898","PERIOD":"95.592"},{"ELEMENT_SET_NO":"999","ECCENTRICITY":"0.00023090","NORAD_CAT_ID":"47768","RA_OF_ASC_NODE":"187.5259","FILE":"3273247","MEAN_ANOMALY":"282.1587","REV_AT_EPOCH":"4920","EPHEMERIS_TYPE":"0","OBJECT_NAME":"STARLINK-2189","APOAPSIS":"548.783","OBJECT_TYPE":"PAYLOAD","GP_ID":"193879150","TLE_LINE1":"1 47768U 21017AY  22014.73505124  .00001194  00000-0  99027-4 0  9995","TIME_SYSTEM":"UTC","PERIOD":"95.592","REF_FRAME":"TEME","MEAN_MOTION":"15.06409589","COUNTRY_CODE":"US","BSTAR":"0.00009902700000","PERIAPSIS":"545.585","TLE_LINE2":"2 47768  53.0534 187.5259 0002309  77.9660 282.1587 15.06409589 49205","INCLINATION":"53.0534","RCS_SIZE":"LARGE","SITE":"AFETR","MEAN_MOTION_DOT":"0.00001194","ARG_OF_PERICENTER":"77.9660","CENTER_NAME":"EARTH","OBJECT_ID":"2021-017AY","LAUNCH_DATE":"2021-03-04","MEAN_ELEMENT_THEORY":"SGP4","DECAY_DATE":null,"MEAN_MOTION_DDOT":"0.0000000000000","SEMIMAJOR_AXIS":"6925.319","EPOCH":"2022-01-14T17:38:28.427136","CLASSIFICATION_TYPE":"U"},{"EPHEMERIS_TYPE":"0","FILE":"3273247","MEAN_ANOMALY":"275.5467","REV_AT_EPOCH":"4973","NORAD_CAT_ID":"47769","RA_OF_ASC_NODE":"151.9971","ECCENTRICITY":"0.00019650","ELEMENT_SET_NO":"999","PERIOD":"95.592","TIME_SYSTEM":"UTC","TLE_LINE1":"1 47769U 21017AZ  22014.84793535  .00001205  00000-0  99747-4 0  9995","GP_ID":"193879401","APOAPSIS":"548.561","OBJECT_TYPE":"PAYLOAD","OBJECT_NAME":"STARLINK-2192","SITE":"AFETR","INCLINATION":"53.0535","RCS_SIZE":"LARGE","TLE_LINE2":"2 47769  53.0535 151.9971 0001965  84.5746 275.5467 15.06404309 49735","PERIAPSIS":"545.840","BSTAR":"0.00009974700000","COUNTRY_CODE":"US","MEAN_MOTION":"15.06404309","REF_FRAME":"TEME","EPOCH":"2022-01-14T20:21:01.614240","CLASSIFICATION_TYPE":"U","SEMIMAJOR_AXIS":"6925.335","MEAN_MOTION_DDOT":"0.0000000000000","MEAN_ELEMENT_THEORY":"SGP4","DECAY_DATE":null,"LAUNCH_DATE":"2021-03-04","OBJECT_ID":"2021-017AZ","MEAN_MOTION_DOT":"0.00001205","ARG_OF_PERICENTER":"84.5746","CENTER_NAME":"EARTH"},{"REF_FRAME":"TEME","MEAN_MOTION":"15.06393531","BSTAR":"0.00003447900000","COUNTRY_CODE":"US","PERIAPSIS":"545.857","TLE_LINE2":"2 47770  53.0546 167.0116 0001988  76.1103 284.0107 15.06393531 49502","RCS_SIZE":"LARGE","INCLINATION":"53.0546","SITE":"AFETR","MEAN_MOTION_DOT":"0.00000232","ARG_OF_PERICENTER":"76.1103","CENTER_NAME":"EARTH","OBJECT_ID":"2021-017BA","LAUNCH_DATE":"2021-03-04","MEAN_ELEMENT_THEORY":"SGP4","DECAY_DATE":null,"MEAN_MOTION_DDOT":"0.0000000000000","SEMIMAJOR_AXIS":"6925.368","EPOCH":"2022-01-14T20:32:18.838176","CLASSIFICATION_TYPE":"U","ELEMENT_SET_NO":"999","ECCENTRICITY":"0.00019880","RA_OF_ASC_NODE":"167.0116","NORAD_CAT_ID":"47770","MEAN_ANOMALY":"284.0107","FILE":"3273247","REV_AT_EPOCH":"4950","EPHEMERIS_TYPE":"0","OBJECT_NAME":"STARLINK-2193","APOAPSIS":"548.610","OBJECT_TYPE":"PAYLOAD","TLE_LINE1":"1 47770U 21017BA  22014.85577359  .00000232  00000-0  34479-4 0  9992","GP_ID":"193878149","TIME_SYSTEM":"UTC","PERIOD":"95.593"},{"FILE":"3273247","MEAN_ANOMALY":"277.0040","REV_AT_EPOCH":"4949","RA_OF_ASC_NODE":"167.5140","NORAD_CAT_ID":"47771","EPHEMERIS_TYPE":"0","ELEMENT_SET_NO":"999","ECCENTRICITY":"0.00025020","TIME_SYSTEM":"UTC","TLE_LINE1":"1 47771U 21017BB  22014.73414181  .00000891  00000-0  78685-4 0  9991","GP_ID":"193878399","PERIOD":"95.592","OBJECT_NAME":"STARLINK-2194","OBJECT_TYPE":"PAYLOAD","APOAPSIS":"548.922","TLE_LINE2":"2 47771  53.0555 167.5140 0002502  83.1234 277.0040 15.06407929 49494","PERIAPSIS":"545.457","SITE":"AFETR","INCLINATION":"53.0555","RCS_SIZE":"LARGE","MEAN_MOTION":"15.06407929","REF_FRAME":"TEME","BSTAR":"0.00007868500000","COUNTRY_CODE":"US","CLASSIFICATION_TYPE":"U","EPOCH":"2022-01-14T17:37:09.852384","MEAN_MOTION_DDOT":"0.0000000000000","SEMIMAJOR_AXIS":"6925.324","OBJECT_ID":"2021-017BB","CENTER_NAME":"EARTH","ARG_OF_PERICENTER":"83.1234","MEAN_MOTION_DOT":"0.00000891","DECAY_DATE":null,"MEAN_ELEMENT_THEORY":"SGP4","LAUNCH_DATE":"2021-03-04"}];
